[{"OBJECT_NAME":"STARLINK-2640","OBJECT_ID":"2021-040L","EPOCH":"2026-03-09T14:24:31.425408","MEAN_MOTION":15.30197527,"ECCENTRICITY":0.0001313,"INCLINATION":53.1614,"RA_OF_ASC_NODE":178.5516,"ARG_OF_PERICENTER":101.7089,"MEAN_ANOMALY":258.4059,"EPHEMERIS_TYPE":0,"CLASSIFICATION_TYPE":"U","NORAD_CAT_ID":48438,"ELEMENT_SET_NO":999,"REV_AT_EPOCH":26666,"BSTAR":-4.3242e-5,"MEAN_MOTION_DOT":-1.64e-5,"MEAN_MOTION_DDOT":0},{"OBJECT_NAME":"KUIPER-00213","OBJECT_ID":"2026-030P","EPOCH":"2026-03-09T22:00:01.999584","MEAN_MOTION":15.32626943,"ECCENTRICITY":0.00152813,"INCLINATION":51.8816,"RA_OF_ASC_NODE":218.5142,"ARG_OF_PERICENTER":64.2462,"MEAN_ANOMALY":206.8369,"EPHEMERIS_TYPE":0,"CLASSIFICATION_TYPE":"U","NORAD_CAT_ID":67777,"ELEMENT_SET_NO":999,"REV_AT_EPOCH":502,"BSTAR":0.0016072376,"MEAN_MOTION_DOT":0.00051551,"MEAN_MOTION_DDOT":0}]
